{"type": "FeatureCollection", "features": [{"type": "Feature", "geometry": {"type": "Polygon", "coordinates": [[[101.45541, 28.87125], [101.45625, 28.87125], [101.45625, 28.86958], [101.45541, 28.86958], [101.45541, 28.86875], [101.45291, 28.86875], [101.45291, 28.86791], [101.45125, 28.86791], [101.45125, 28.86625], [101.44791, 28.86625], [101.44791, 28.86541], [101.44625, 28.86541], [101.44625, 28.86208], [101.44541, 28.86208], [101.44541, 28.85958], [101.44458, 28.85958], [101.44458, 28.85875], [101.43875, 28.85875], [101.43875, 28.85791], [101.43791, 28.85791], [101.43791, 28.85708], [101.43541, 28.85708], [101.43541, 28.85625], [101.43458, 28.85625], [101.43458, 28.85541], [101.43041, 28.85541], [101.43041, 28.85458], [101.42791, 28.85458], [101.42791, 28.85375], [101.42708, 28.85375], [101.42708, 28.85291], [101.42625, 28.85291], [101.42625, 28.85125], [101.42541, 28.85125], [101.42541, 28.85041], [101.42458, 28.85041], [101.42458, 28.84958], [101.42125, 28.84958], [101.42125, 28.84875], [101.41958, 28.84875], [101.41958, 28.84791], [101.41875, 28.84791], [101.41875, 28.84708], [101.41708, 28.84708], [101.41708, 28.84625], [101.41625, 28.84625], [101.41625, 28.84541], [101.41375, 28.84541], [101.41375, 28.84458], [101.41458, 28.84458], [101.41458, 28.84291], [101.41541, 28.84291], [101.41541, 28.84208], [101.41625, 28.84208], [101.41625, 28.84125], [101.41708, 28.84125], [101.41708, 28.84041], [101.41791, 28.84041], [101.41791, 28.83875], [101.41958, 28.83875], [101.41958, 28.83791], [101.42041, 28.83791], [101.42041, 28.83708], [101.42125, 28.83708], [101.42125, 28.83375], [101.42041, 28.83375], [101.42041, 28.83208], [101.41875, 28.83208], [101.41875, 28.83125], [101.41791, 28.83125], [101.41791, 28.83041], [101.41708, 28.83041], [101.41708, 28.82875], [101.41625, 28.82875], [101.41625, 28.82791], [101.41541, 28.82791], [101.41541, 28.82625], [101.41458, 28.82625], [101.41458, 28.82458], [101.41375, 28.82458], [101.41375, 28.82291], [101.41291, 28.82291], [101.41291, 28.82041], [101.41208, 28.82041], [101.41208, 28.81958], [101.41125, 28.81958], [101.41125, 28.81375], [101.41208, 28.81375], [101.41208, 28.81208], [101.41291, 28.81208], [101.41291, 28.80875], [101.41375, 28.80875], [101.41375, 28.80791], [101.41458, 28.80791], [101.41458, 28.80708], [101.41541, 28.80708], [101.41541, 28.80541], [101.41625, 28.80541], [101.41625, 28.80458], [101.41708, 28.80458], [101.41708, 28.80375], [101.41791, 28.80375], [101.41791, 28.80291], [101.41875, 28.80291], [101.41875, 28.80208], [101.41958, 28.80208], [101.41958, 28.80125], [101.42041, 28.80125], [101.42041, 28.79958], [101.42125, 28.79958], [101.42125, 28.79791], [101.42208, 28.79791], [101.42208, 28.79541], [101.42291, 28.79541], [101.42291, 28.79375], [101.42375, 28.79375], [101.42375, 28.79291], [101.42458, 28.79291], [101.42458, 28.79208], [101.42708, 28.79208], [101.42708, 28.79125], [101.42958, 28.79125], [101.42958, 28.79041], [101.43541, 28.79041], [101.43541, 28.79125], [101.43625, 28.79125], [101.43625, 28.79208], [101.43708, 28.79208], [101.43708, 28.79291], [101.43875, 28.79291], [101.43875, 28.79458], [101.43958, 28.79458], [101.43958, 28.79541], [101.44125, 28.79541], [101.44125, 28.79708], [101.44291, 28.79708], [101.44291, 28.79791], [101.44625, 28.79791], [101.44625, 28.79875], [101.45291, 28.79875], [101.45291, 28.79958], [101.45458, 28.79958], [101.45458, 28.80041], [101.45625, 28.80041], [101.45625, 28.80125], [101.45791, 28.80125], [101.45791, 28.80208], [101.46041, 28.80208], [101.46041, 28.80291], [101.46125, 28.80291], [101.46125, 28.80375], [101.46208, 28.80375], [101.46208, 28.80458], [101.46375, 28.80458], [101.46375, 28.80541], [101.46625, 28.80541], [101.46625, 28.80458], [101.46791, 28.80458], [101.46791, 28.80375], [101.46875, 28.80375], [101.46875, 28.80291], [101.46958, 28.80291], [101.46958, 28.80208], [101.47041, 28.80208], [101.47041, 28.80125], [101.47208, 28.80125], [101.47208, 28.80041], [101.47291, 28.80041], [101.47291, 28.79958], [101.47375, 28.79958], [101.47375, 28.79875], [101.47625, 28.79875], [101.47625, 28.79791], [101.47958, 28.79791], [101.47958, 28.79708], [101.48125, 28.79708], [101.48125, 28.79625], [101.48458, 28.79625], [101.48458, 28.79541], [101.48708, 28.79541], [101.48708, 28.79625], [101.48791, 28.79625], [101.48791, 28.79375], [101.48875, 28.79375], [101.48875, 28.79208], [101.49291, 28.79208], [101.49291, 28.79125], [101.49541, 28.79125], [101.49541, 28.79041], [101.49958, 28.79041], [101.49958, 28.79125], [101.50291, 28.79125], [101.50291, 28.79041], [101.50708, 28.79041], [101.50708, 28.79125], [101.51375, 28.79125], [101.51375, 28.78708], [101.51458, 28.78708], [101.51458, 28.78541], [101.51375, 28.78541], [101.51375, 28.78291], [101.51291, 28.78291], [101.51291, 28.78208], [101.51375, 28.78208], [101.51375, 28.78125], [101.51458, 28.78125], [101.51458, 28.77958], [101.51541, 28.77958], [101.51541, 28.77875], [101.51708, 28.77875], [101.51708, 28.77791], [101.51875, 28.77791], [101.51875, 28.77708], [101.52125, 28.77708], [101.52125, 28.77625], [101.52375, 28.77625], [101.52375, 28.77541], [101.52458, 28.77541], [101.52458, 28.77291], [101.52541, 28.77291], [101.52541, 28.77208], [101.53291, 28.77208], [101.53291, 28.77125], [101.53375, 28.77125], [101.53375, 28.77041], [101.53458, 28.77041], [101.53458, 28.76708], [101.53541, 28.76708], [101.53541, 28.76541], [101.53458, 28.76541], [101.53458, 28.76375], [101.53375, 28.76375], [101.53375, 28.76125], [101.53291, 28.76125], [101.53291, 28.75875], [101.53375, 28.75875], [101.53375, 28.75791], [101.53458, 28.75791], [101.53458, 28.75708], [101.53541, 28.75708], [101.53541, 28.75625], [101.53625, 28.75625], [101.53625, 28.75541], [101.53708, 28.75541], [101.53708, 28.75458], [101.53791, 28.75458], [101.53791, 28.75291], [101.53875, 28.75291], [101.53875, 28.75125], [101.53958, 28.75125], [101.53958, 28.74791], [101.54125, 28.74791], [101.54125, 28.74708], [101.54208, 28.74708], [101.54208, 28.74625], [101.54291, 28.74625], [101.54291, 28.74541], [101.54375, 28.74541], [101.54375, 28.74458], [101.54458, 28.74458], [101.54458, 28.74291], [101.54541, 28.74291], [101.54541, 28.73875], [101.54458, 28.73875], [101.54458, 28.73791], [101.54375, 28.73791], [101.54375, 28.73541], [101.54541, 28.73541], [101.54541, 28.73458], [101.54791, 28.73458], [101.54791, 28.73375], [101.54875, 28.73375], [101.54875, 28.73291], [101.55041, 28.73291], [101.55041, 28.73208], [101.55625, 28.73208], [101.55625, 28.73125], [101.55875, 28.73125], [101.55875, 28.73208], [101.56541, 28.73208], [101.56541, 28.73125], [101.56708, 28.73125], [101.56708, 28.73041], [101.56791, 28.73041], [101.56791, 28.72958], [101.56875, 28.72958], [101.56875, 28.73041], [101.57208, 28.73041], [101.57208, 28.73125], [101.57458, 28.73125], [101.57458, 28.73208], [101.57875, 28.73208], [101.57875, 28.73125], [101.58041, 28.73125], [101.58041, 28.73041], [101.58125, 28.73041], [101.58125, 28.72958], [101.58291, 28.72958], [101.58291, 28.72875], [101.58375, 28.72875], [101.58375, 28.72791], [101.58458, 28.72791], [101.58458, 28.72708], [101.58625, 28.72708], [101.58625, 28.72625], [101.58958, 28.72625], [101.58958, 28.72541], [101.59125, 28.72541], [101.59125, 28.72458], [101.59208, 28.72458], [101.59208, 28.72291], [101.59291, 28.72291], [101.59291, 28.72208], [101.59375, 28.72208], [101.59375, 28.71958], [101.59458, 28.71958], [101.59458, 28.71875], [101.59791, 28.71875], [101.59791, 28.71791], [101.60041, 28.71791], [101.60041, 28.71708], [101.60375, 28.71708], [101.60375, 28.71625], [101.60625, 28.71625], [101.60625, 28.71541], [101.60791, 28.71541], [101.60791, 28.71458], [101.60958, 28.71458], [101.60958, 28.71375], [101.61541, 28.71375], [101.61541, 28.71458], [101.62291, 28.71458], [101.62291, 28.71375], [101.62458, 28.71375], [101.62458, 28.71291], [101.63041, 28.71291], [101.63041, 28.71208], [101.63125, 28.71208], [101.63125, 28.71291], [101.63791, 28.71291], [101.63791, 28.71375], [101.64041, 28.71375], [101.64041, 28.71458], [101.64375, 28.71458], [101.64375, 28.71541], [101.64708, 28.71541], [101.64708, 28.71458], [101.64791, 28.71458], [101.64791, 28.71375], [101.64875, 28.71375], [101.64875, 28.71291], [101.65125, 28.71291], [101.65125, 28.71208], [101.65208, 28.71208], [101.65208, 28.71125], [101.65375, 28.71125], [101.65375, 28.71208], [101.65708, 28.71208], [101.65708, 28.71291], [101.65791, 28.71291], [101.65791, 28.71375], [101.66791, 28.71375], [101.66791, 28.71458], [101.67041, 28.71458], [101.67041, 28.71375], [101.67125, 28.71375], [101.67125, 28.71291], [101.67208, 28.71291], [101.67208, 28.71208], [101.67291, 28.71208], [101.67291, 28.71125], [101.67375, 28.71125], [101.67375, 28.71041], [101.67458, 28.71041], [101.67458, 28.71125], [101.67541, 28.71125], [101.67541, 28.71041], [101.67625, 28.71041], [101.67625, 28.71125], [101.67708, 28.71125], [101.67708, 28.71208], [101.67791, 28.71208], [101.67791, 28.71125], [101.67958, 28.71125], [101.67958, 28.71041], [101.68041, 28.71041], [101.68041, 28.70958], [101.68291, 28.70958], [101.68291, 28.71041], [101.68541, 28.71041], [101.68541, 28.70958], [101.68708, 28.70958], [101.68708, 28.71041], [101.68875, 28.71041], [101.68875, 28.70958], [101.68958, 28.70958], [101.68958, 28.71041], [101.69125, 28.71041], [101.69125, 28.71125], [101.69208, 28.71125], [101.69208, 28.71208], [101.69291, 28.71208], [101.69291, 28.71291], [101.69541, 28.71291], [101.69541, 28.71208], [101.69875, 28.71208], [101.69875, 28.71125], [101.69958, 28.71125], [101.69958, 28.71208], [101.70125, 28.71208], [101.70125, 28.71291], [101.70208, 28.71291], [101.70208, 28.71458], [101.70291, 28.71458], [101.70291, 28.71541], [101.70375, 28.71541], [101.70375, 28.71708], [101.70458, 28.71708], [101.70458, 28.71958], [101.70541, 28.71958], [101.70541, 28.72125], [101.70708, 28.72125], [101.70708, 28.72291], [101.70791, 28.72291], [101.70791, 28.72458], [101.70875, 28.72458], [101.70875, 28.72791], [101.70958, 28.72791], [101.70958, 28.72958], [101.71041, 28.72958], [101.71041, 28.73041], [101.70958, 28.73041], [101.70958, 28.73291], [101.71041, 28.73291], [101.71041, 28.73375], [101.71125, 28.73375], [101.71125, 28.73458], [101.71208, 28.73458], [101.71208, 28.73541], [101.71291, 28.73541], [101.71291, 28.73708], [101.71375, 28.73708], [101.71375, 28.73791], [101.71458, 28.73791], [101.71458, 28.73958], [101.71541, 28.73958], [101.71541, 28.74041], [101.71625, 28.74041], [101.71625, 28.74208], [101.71708, 28.74208], [101.71708, 28.74458], [101.71791, 28.74458], [101.71791, 28.74625], [101.71708, 28.74625], [101.71708, 28.75041], [101.71625, 28.75041], [101.71625, 28.75125], [101.71625, 28.75791], [101.71541, 28.75791], [101.71541, 28.76291], [101.71625, 28.76291], [101.71625, 28.76625], [101.71708, 28.76625], [101.71708, 28.76791], [101.71791, 28.76791], [101.71791, 28.76875], [101.71875, 28.76875], [101.71875, 28.77208], [101.71958, 28.77208], [101.71958, 28.77791], [101.72041, 28.77791], [101.72041, 28.78208], [101.72125, 28.78208], [101.72125, 28.78291], [101.72208, 28.78291], [101.72208, 28.78375], [101.72291, 28.78375], [101.72291, 28.78541], [101.72375, 28.78541], [101.72375, 28.78708], [101.72458, 28.78708], [101.72458, 28.78791], [101.72541, 28.78791], [101.72541, 28.78875], [101.72625, 28.78875], [101.72625, 28.79041], [101.72708, 28.79041], [101.72708, 28.79125], [101.72791, 28.79125], [101.72791, 28.79208], [101.72875, 28.79208], [101.72875, 28.79291], [101.72958, 28.79291], [101.72958, 28.79375], [101.73041, 28.79375], [101.73041, 28.79541], [101.73125, 28.79541], [101.73125, 28.79625], [101.73208, 28.79625], [101.73208, 28.79791], [101.73291, 28.79791], [101.73291, 28.79875], [101.73458, 28.79875], [101.73458, 28.79958], [101.73625, 28.79958], [101.73625, 28.80041], [101.73875, 28.80041], [101.73875, 28.80125], [101.74041, 28.80125], [101.74041, 28.80041], [101.74125, 28.80041], [101.74125, 28.79958], [101.74625, 28.79958], [101.74625, 28.80041], [101.74708, 28.80041], [101.74708, 28.80875], [101.74875, 28.80875], [101.74875, 28.80958], [101.74958, 28.80958], [101.74958, 28.81041], [101.75125, 28.81041], [101.75125, 28.81125], [101.75208, 28.81125], [101.75208, 28.81208], [101.75375, 28.81208], [101.75375, 28.81291], [101.75458, 28.81291], [101.75458, 28.81375], [101.75541, 28.81375], [101.75541, 28.81458], [101.75791, 28.81458], [101.75791, 28.81541], [101.75875, 28.81541], [101.75875, 28.81625], [101.75958, 28.81625], [101.75958, 28.81958], [101.76041, 28.81958], [101.76041, 28.82041], [101.76125, 28.82041], [101.76125, 28.82291], [101.76208, 28.82291], [101.76208, 28.82541], [101.76291, 28.82541], [101.76291, 28.82625], [101.76458, 28.82625], [101.76458, 28.82708], [101.76541, 28.82708], [101.76541, 28.82791], [101.76625, 28.82791], [101.76625, 28.82875], [101.76708, 28.82875], [101.76708, 28.82958], [101.76791, 28.82958], [101.76791, 28.83041], [101.76958, 28.83041], [101.76958, 28.83125], [101.77125, 28.83125], [101.77125, 28.83291], [101.77208, 28.83291], [101.77208, 28.83375], [101.77291, 28.83375], [101.77291, 28.83458], [101.77375, 28.83458], [101.77375, 28.83541], [101.77458, 28.83541], [101.77458, 28.83625], [101.77541, 28.83625], [101.77541, 28.83791], [101.77458, 28.83791], [101.77458, 28.84041], [101.77375, 28.84041], [101.77375, 28.84291], [101.77291, 28.84291], [101.77291, 28.84541], [101.77208, 28.84541], [101.77208, 28.84625], [101.77291, 28.84625], [101.77291, 28.85041], [101.77125, 28.85041], [101.77125, 28.85208], [101.77041, 28.85208], [101.77041, 28.85375], [101.76958, 28.85375], [101.76958, 28.85625], [101.76875, 28.85625], [101.76875, 28.85958], [101.76791, 28.85958], [101.76791, 28.86208], [101.76625, 28.86208], [101.76625, 28.86458], [101.76541, 28.86458], [101.76541, 28.86708], [101.76458, 28.86708], [101.76458, 28.86875], [101.76291, 28.86875], [101.76291, 28.86958], [101.76125, 28.86958], [101.76125, 28.87041], [101.76041, 28.87041], [101.76041, 28.87208], [101.75958, 28.87208], [101.75958, 28.87458], [101.75791, 28.87458], [101.75791, 28.87708], [101.75708, 28.87708], [101.75708, 28.87791], [101.75375, 28.87791], [101.75375, 28.87875], [101.75125, 28.87875], [101.75125, 28.87958], [101.74708, 28.87958], [101.74708, 28.88041], [101.74458, 28.88041], [101.74458, 28.88125], [101.74375, 28.88125], [101.74375, 28.88208], [101.73958, 28.88208], [101.73958, 28.88375], [101.73875, 28.88375], [101.73875, 28.88541], [101.73791, 28.88541], [101.73791, 28.88875], [101.73708, 28.88875], [101.73708, 28.89041], [101.73625, 28.89041], [101.73625, 28.89291], [101.73541, 28.89291], [101.73541, 28.89541], [101.73625, 28.89541], [101.73625, 28.89875], [101.73708, 28.89875], [101.73708, 28.90125], [101.73625, 28.90125], [101.73625, 28.90291], [101.73541, 28.90291], [101.73541, 28.90375], [101.73458, 28.90375], [101.73458, 28.90958], [101.73375, 28.90958], [101.73375, 28.91208], [101.73208, 28.91208], [101.73208, 28.91375], [101.73125, 28.91375], [101.73125, 28.91625], [101.73041, 28.91625], [101.73041, 28.91708], [101.72708, 28.91708], [101.72708, 28.91791], [101.72375, 28.91791], [101.72375, 28.91875], [101.71875, 28.91875], [101.71875, 28.91958], [101.71708, 28.91958], [101.71708, 28.92041], [101.71541, 28.92041], [101.71541, 28.92375], [101.71458, 28.92375], [101.71458, 28.92708], [101.71375, 28.92708], [101.71375, 28.92958], [101.71291, 28.92958], [101.71291, 28.93125], [101.71208, 28.93125], [101.71208, 28.93291], [101.71125, 28.93291], [101.71125, 28.93458], [101.71041, 28.93458], [101.71041, 28.93541], [101.70958, 28.93541], [101.70958, 28.94125], [101.71041, 28.94125], [101.71041, 28.94291], [101.71125, 28.94291], [101.71125, 28.94375], [101.71208, 28.94375], [101.71208, 28.94541], [101.71291, 28.94541], [101.71291, 28.94625], [101.71375, 28.94625], [101.71375, 28.94791], [101.71458, 28.94791], [101.71458, 28.94875], [101.71541, 28.94875], [101.71541, 28.94958], [101.71625, 28.94958], [101.71625, 28.95041], [101.71708, 28.95041], [101.71708, 28.95125], [101.71791, 28.95125], [101.71791, 28.95208], [101.71875, 28.95208], [101.71875, 28.95291], [101.71791, 28.95291], [101.71791, 28.95375], [101.71708, 28.95375], [101.71708, 28.95625], [101.71625, 28.95625], [101.71625, 28.95708], [101.71541, 28.95708], [101.71541, 28.95791], [101.71458, 28.95791], [101.71458, 28.95875], [101.71375, 28.95875], [101.71375, 28.95958], [101.71291, 28.95958], [101.71291, 28.96041], [101.71208, 28.96041], [101.71208, 28.96125], [101.71041, 28.96125], [101.71041, 28.96041], [101.70125, 28.96041], [101.70125, 28.95958], [101.69541, 28.95958], [101.69541, 28.96041], [101.69291, 28.96041], [101.69291, 28.96125], [101.69125, 28.96125], [101.69125, 28.96208], [101.69041, 28.96208], [101.69041, 28.96291], [101.68875, 28.96291], [101.68875, 28.96375], [101.68625, 28.96375], [101.68625, 28.96458], [101.68541, 28.96458], [101.68541, 28.96708], [101.68291, 28.96708], [101.68291, 28.96791], [101.67458, 28.96791], [101.67458, 28.96708], [101.66791, 28.96708], [101.66791, 28.96791], [101.66541, 28.96791], [101.66541, 28.96875], [101.66458, 28.96875], [101.66458, 28.97041], [101.66375, 28.97041], [101.66375, 28.97708], [101.66458, 28.97708], [101.66458, 28.97791], [101.66541, 28.97791], [101.66541, 28.97875], [101.66625, 28.97875], [101.66625, 28.98541], [101.66541, 28.98541], [101.66541, 28.98708], [101.66458, 28.98708], [101.66458, 28.98875], [101.66375, 28.98875], [101.66375, 28.98958], [101.66291, 28.98958], [101.66291, 28.99041], [101.66208, 28.99041], [101.66208, 28.99208], [101.66125, 28.99208], [101.66125, 28.99625], [101.66041, 28.99625], [101.66041, 29.00041], [101.66375, 29.00041], [101.66375, 29.00125], [101.66458, 29.00125], [101.66458, 29.00208], [101.66541, 29.00208], [101.66541, 29.00291], [101.66625, 29.00291], [101.66625, 29.00375], [101.66708, 29.00375], [101.66708, 29.00458], [101.66791, 29.00458], [101.66791, 29.00625], [101.66875, 29.00625], [101.66875, 29.00791], [101.66791, 29.00791], [101.66791, 29.00875], [101.66708, 29.00875], [101.66708, 29.01041], [101.66625, 29.01041], [101.66625, 29.01208], [101.66541, 29.01208], [101.66541, 29.01375], [101.66458, 29.01375], [101.66458, 29.01541], [101.66291, 29.01541], [101.66291, 29.01625], [101.66208, 29.01625], [101.66208, 29.01708], [101.66125, 29.01708], [101.66125, 29.01791], [101.66041, 29.01791], [101.66041, 29.01875], [101.66125, 29.01875], [101.66125, 29.02041], [101.66208, 29.02041], [101.66208, 29.02208], [101.66375, 29.02208], [101.66375, 29.02291], [101.66625, 29.02291], [101.66625, 29.02375], [101.66708, 29.02375], [101.66708, 29.02458], [101.66875, 29.02458], [101.66875, 29.02541], [101.67041, 29.02541], [101.67041, 29.02625], [101.67208, 29.02625], [101.67208, 29.02791], [101.67291, 29.02791], [101.67291, 29.02958], [101.67375, 29.02958], [101.67375, 29.03041], [101.67458, 29.03041], [101.67458, 29.03125], [101.67541, 29.03125], [101.67541, 29.03208], [101.67625, 29.03208], [101.67625, 29.03458], [101.67875, 29.03458], [101.67875, 29.03541], [101.67958, 29.03541], [101.67958, 29.03625], [101.68041, 29.03625], [101.68041, 29.03708], [101.68125, 29.03708], [101.68125, 29.03875], [101.68291, 29.03875], [101.68291, 29.03958], [101.68375, 29.03958], [101.68375, 29.04041], [101.68458, 29.04041], [101.68458, 29.04125], [101.68708, 29.04125], [101.68708, 29.04208], [101.68791, 29.04208], [101.68791, 29.04291], [101.68875, 29.04291], [101.68875, 29.04541], [101.68958, 29.04541], [101.68958, 29.04625], [101.69041, 29.04625], [101.69041, 29.04708], [101.69125, 29.04708], [101.69125, 29.04791], [101.69208, 29.04791], [101.69208, 29.04958], [101.69291, 29.04958], [101.69291, 29.05208], [101.69375, 29.05208], [101.69375, 29.05958], [101.69458, 29.05958], [101.69458, 29.06291], [101.69541, 29.06291], [101.69541, 29.06458], [101.69458, 29.06458], [101.69458, 29.07041], [101.69375, 29.07041], [101.69375, 29.07541], [101.69291, 29.07541], [101.69291, 29.07708], [101.69208, 29.07708], [101.69208, 29.07791], [101.69125, 29.07791], [101.69125, 29.07958], [101.69041, 29.07958], [101.69041, 29.08041], [101.69125, 29.08041], [101.69125, 29.08375], [101.69041, 29.08375], [101.69041, 29.08541], [101.69125, 29.08541], [101.69125, 29.08625], [101.69208, 29.08625], [101.69208, 29.09125], [101.69125, 29.09125], [101.69125, 29.09291], [101.69041, 29.09291], [101.69041, 29.09375], [101.68958, 29.09375], [101.68958, 29.09458], [101.68875, 29.09458], [101.68875, 29.09625], [101.68791, 29.09625], [101.68791, 29.09708], [101.68708, 29.09708], [101.68708, 29.09791], [101.68541, 29.09791], [101.68541, 29.09875], [101.68458, 29.09875], [101.68458, 29.09958], [101.68375, 29.09958], [101.68375, 29.10041], [101.68291, 29.10041], [101.68291, 29.10125], [101.68208, 29.10125], [101.68208, 29.10458], [101.68125, 29.10458], [101.68125, 29.10541], [101.68041, 29.10541], [101.68041, 29.10625], [101.67875, 29.10625], [101.67875, 29.10708], [101.67625, 29.10708], [101.67625, 29.10791], [101.67541, 29.10791], [101.67541, 29.10875], [101.67458, 29.10875], [101.67458, 29.10958], [101.67375, 29.10958], [101.67375, 29.11041], [101.67291, 29.11041], [101.67291, 29.11125], [101.67208, 29.11125], [101.67208, 29.11208], [101.67125, 29.11208], [101.67125, 29.11375], [101.67041, 29.11375], [101.67041, 29.11458], [101.66958, 29.11458], [101.66958, 29.11541], [101.66875, 29.11541], [101.66875, 29.11625], [101.66791, 29.11625], [101.66791, 29.11791], [101.66708, 29.11791], [101.66708, 29.11875], [101.66625, 29.11875], [101.66625, 29.11958], [101.66541, 29.11958], [101.66541, 29.12041], [101.66375, 29.12041], [101.66375, 29.12125], [101.66291, 29.12125], [101.66291, 29.12208], [101.66208, 29.12208], [101.66208, 29.12375], [101.66291, 29.12375], [101.66291, 29.12708], [101.66375, 29.12708], [101.66375, 29.13375], [101.66291, 29.13375], [101.66291, 29.13541], [101.66208, 29.13541], [101.66208, 29.13625], [101.66125, 29.13625], [101.66125, 29.13708], [101.65958, 29.13708], [101.65958, 29.13791], [101.65708, 29.13791], [101.65708, 29.13875], [101.65625, 29.13875], [101.65625, 29.14375], [101.65541, 29.14375], [101.65541, 29.14541], [101.65458, 29.14541], [101.65458, 29.14791], [101.65375, 29.14791], [101.65375, 29.15041], [101.65291, 29.15041], [101.65291, 29.15125], [101.65208, 29.15125], [101.65208, 29.15458], [101.65291, 29.15458], [101.65291, 29.15541], [101.65208, 29.15541], [101.65208, 29.15625], [101.65125, 29.15625], [101.65125, 29.15708], [101.65041, 29.15708], [101.65041, 29.15791], [101.64958, 29.15791], [101.64958, 29.15875], [101.65041, 29.15875], [101.65041, 29.15958], [101.65125, 29.15958], [101.65125, 29.16041], [101.65208, 29.16041], [101.65208, 29.16208], [101.65291, 29.16208], [101.65291, 29.16375], [101.65375, 29.16375], [101.65375, 29.16541], [101.65458, 29.16541], [101.65458, 29.16708], [101.65541, 29.16708], [101.65541, 29.16958], [101.65625, 29.16958], [101.65625, 29.17208], [101.65708, 29.17208], [101.65708, 29.17791], [101.65625, 29.17791], [101.65625, 29.18208], [101.65541, 29.18208], [101.65541, 29.18458], [101.65458, 29.18458], [101.65458, 29.18541], [101.65541, 29.18541], [101.65541, 29.18875], [101.65458, 29.18875], [101.65458, 29.18958], [101.65375, 29.18958], [101.65375, 29.19125], [101.65291, 29.19125], [101.65291, 29.19375], [101.65375, 29.19375], [101.65375, 29.19458], [101.65458, 29.19458], [101.65458, 29.19541], [101.65541, 29.19541], [101.65541, 29.19708], [101.65625, 29.19708], [101.65625, 29.19875], [101.65708, 29.19875], [101.65708, 29.20041], [101.65791, 29.20041], [101.65791, 29.20125], [101.67291, 29.20125], [101.67291, 29.20041], [101.67625, 29.20041], [101.67625, 29.19958], [101.67958, 29.19958], [101.67958, 29.19791], [101.68208, 29.19791], [101.68208, 29.19708], [101.68458, 29.19708], [101.68458, 29.19625], [101.68541, 29.19625], [101.68541, 29.19541], [101.68875, 29.19541], [101.68875, 29.19625], [101.69291, 29.19625], [101.69291, 29.19541], [101.69375, 29.19541], [101.69375, 29.19625], [101.69458, 29.19625], [101.69458, 29.19708], [101.69541, 29.19708], [101.69541, 29.19791], [101.69791, 29.19791], [101.69791, 29.19875], [101.69958, 29.19875], [101.69958, 29.20041], [101.70041, 29.20041], [101.70041, 29.20291], [101.70125, 29.20291], [101.70125, 29.20375], [101.70208, 29.20375], [101.70208, 29.20458], [101.70458, 29.20458], [101.70458, 29.20541], [101.70625, 29.20541], [101.70625, 29.20625], [101.70791, 29.20625], [101.70791, 29.20541], [101.70875, 29.20541], [101.70875, 29.21125], [101.70791, 29.21125], [101.70791, 29.21208], [101.70625, 29.21208], [101.70625, 29.21291], [101.70458, 29.21291], [101.70458, 29.21375], [101.70375, 29.21375], [101.70375, 29.21458], [101.70291, 29.21458], [101.70291, 29.21541], [101.70208, 29.21541], [101.70208, 29.21708], [101.70125, 29.21708], [101.70125, 29.21791], [101.70041, 29.21791], [101.70041, 29.21875], [101.69875, 29.21875], [101.69875, 29.21958], [101.69791, 29.21958], [101.69791, 29.22125], [101.69708, 29.22125], [101.69708, 29.22791], [101.69791, 29.22791], [101.69791, 29.23041], [101.69875, 29.23041], [101.69875, 29.23125], [101.69791, 29.23125], [101.69791, 29.23291], [101.69875, 29.23291], [101.69875, 29.23625], [101.69958, 29.23625], [101.69958, 29.23875], [101.70041, 29.23875], [101.70041, 29.23958], [101.70208, 29.23958], [101.70208, 29.24125], [101.70375, 29.24125], [101.70375, 29.24208], [101.70458, 29.24208], [101.70458, 29.24291], [101.70541, 29.24291], [101.70541, 29.24458], [101.70625, 29.24458], [101.70625, 29.24708], [101.70708, 29.24708], [101.70708, 29.24875], [101.70791, 29.24875], [101.70791, 29.25208], [101.70875, 29.25208], [101.70875, 29.25291], [101.70958, 29.25291], [101.70958, 29.25458], [101.70875, 29.25458], [101.70875, 29.25541], [101.70791, 29.25541], [101.70791, 29.25625], [101.70708, 29.25625], [101.70708, 29.25708], [101.70625, 29.25708], [101.70625, 29.25791], [101.70541, 29.25791], [101.70541, 29.25875], [101.70375, 29.25875], [101.70375, 29.26041], [101.70291, 29.26041], [101.70291, 29.26125], [101.70208, 29.26125], [101.70208, 29.26208], [101.70125, 29.26208], [101.70125, 29.26291], [101.70041, 29.26291], [101.70041, 29.26375], [101.69875, 29.26375], [101.69875, 29.26458], [101.69791, 29.26458], [101.69791, 29.26541], [101.69708, 29.26541], [101.69708, 29.26625], [101.69625, 29.26625], [101.69625, 29.26708], [101.69541, 29.26708], [101.69541, 29.26791], [101.69375, 29.26791], [101.69375, 29.26875], [101.69291, 29.26875], [101.69291, 29.27291], [101.69208, 29.27291], [101.69208, 29.27458], [101.69125, 29.27458], [101.69125, 29.27541], [101.69041, 29.27541], [101.69041, 29.27625], [101.68958, 29.27625], [101.68958, 29.28041], [101.68875, 29.28041], [101.68875, 29.28458], [101.68708, 29.28458], [101.68708, 29.28541], [101.68208, 29.28541], [101.68208, 29.28375], [101.68125, 29.28375], [101.68125, 29.28291], [101.67958, 29.28291], [101.67958, 29.28208], [101.67708, 29.28208], [101.67708, 29.28125], [101.67625, 29.28125], [101.67625, 29.28208], [101.67458, 29.28208], [101.67458, 29.28291], [101.67375, 29.28291], [101.67375, 29.28375], [101.67291, 29.28375], [101.67291, 29.28541], [101.67208, 29.28541], [101.67208, 29.28625], [101.67125, 29.28625], [101.67125, 29.28791], [101.67041, 29.28791], [101.67041, 29.28875], [101.66958, 29.28875], [101.66958, 29.28958], [101.66875, 29.28958], [101.66875, 29.29041], [101.66791, 29.29041], [101.66791, 29.29125], [101.66541, 29.29125], [101.66541, 29.29208], [101.66291, 29.29208], [101.66291, 29.29125], [101.66208, 29.29125], [101.66208, 29.28958], [101.66125, 29.28958], [101.66125, 29.28875], [101.65958, 29.28875], [101.65958, 29.28791], [101.65791, 29.28791], [101.65791, 29.28708], [101.65625, 29.28708], [101.65625, 29.28625], [101.65458, 29.28625], [101.65458, 29.28541], [101.65291, 29.28541], [101.65291, 29.28458], [101.64958, 29.28458], [101.64958, 29.28375], [101.64458, 29.28375], [101.64458, 29.28458], [101.64375, 29.28458], [101.64375, 29.28625], [101.64291, 29.28625], [101.64291, 29.28708], [101.64208, 29.28708], [101.64208, 29.28791], [101.64041, 29.28791], [101.64041, 29.28875], [101.63875, 29.28875], [101.63875, 29.28791], [101.63791, 29.28791], [101.63791, 29.28875], [101.63625, 29.28875], [101.63625, 29.28958], [101.63541, 29.28958], [101.63541, 29.29041], [101.63375, 29.29041], [101.63375, 29.29125], [101.63041, 29.29125], [101.63041, 29.29208], [101.62791, 29.29208], [101.62791, 29.29125], [101.62375, 29.29125], [101.62375, 29.29375], [101.62291, 29.29375], [101.62291, 29.29458], [101.62125, 29.29458], [101.62125, 29.29375], [101.62041, 29.29375], [101.62041, 29.29291], [101.61958, 29.29291], [101.61958, 29.29208], [101.61875, 29.29208], [101.61875, 29.29125], [101.61791, 29.29125], [101.61791, 29.29041], [101.61458, 29.29041], [101.61458, 29.28958], [101.61041, 29.28958], [101.61041, 29.29041], [101.60875, 29.29041], [101.60875, 29.29125], [101.60791, 29.29125], [101.60791, 29.29208], [101.60708, 29.29208], [101.60708, 29.29291], [101.60625, 29.29291], [101.60625, 29.29541], [101.60541, 29.29541], [101.60541, 29.29625], [101.60458, 29.29625], [101.60458, 29.29791], [101.60375, 29.29791], [101.60375, 29.29875], [101.60291, 29.29875], [101.60291, 29.29958], [101.60208, 29.29958], [101.60208, 29.29875], [101.60041, 29.29875], [101.60041, 29.29958], [101.59625, 29.29958], [101.59625, 29.29875], [101.59541, 29.29875], [101.59541, 29.29791], [101.59458, 29.29791], [101.59458, 29.29625], [101.59375, 29.29625], [101.59375, 29.29541], [101.59291, 29.29541], [101.59291, 29.29375], [101.59208, 29.29375], [101.59208, 29.29291], [101.59125, 29.29291], [101.59125, 29.29208], [101.59041, 29.29208], [101.59041, 29.29125], [101.58958, 29.29125], [101.58958, 29.29041], [101.58875, 29.29041], [101.58875, 29.28958], [101.58458, 29.28958], [101.58458, 29.28875], [101.58291, 29.28875], [101.58291, 29.28791], [101.58208, 29.28791], [101.58208, 29.28875], [101.57875, 29.28875], [101.57875, 29.28791], [101.57708, 29.28791], [101.57708, 29.28875], [101.57208, 29.28875], [101.57208, 29.28791], [101.57041, 29.28791], [101.57041, 29.28708], [101.56875, 29.28708], [101.56875, 29.28625], [101.56625, 29.28625], [101.56625, 29.28541], [101.56208, 29.28541], [101.56208, 29.28458], [101.56041, 29.28458], [101.56041, 29.28541], [101.55875, 29.28541], [101.55875, 29.28625], [101.55791, 29.28625], [101.55791, 29.28875], [101.55708, 29.28875], [101.55708, 29.29208], [101.55791, 29.29208], [101.55791, 29.29375], [101.55708, 29.29375], [101.55708, 29.29541], [101.55625, 29.29541], [101.55625, 29.29625], [101.55708, 29.29625], [101.55708, 29.29708], [101.55791, 29.29708], [101.55791, 29.29791], [101.55875, 29.29791], [101.55875, 29.29875], [101.55958, 29.29875], [101.55958, 29.30208], [101.55791, 29.30208], [101.55791, 29.30291], [101.55708, 29.30291], [101.55708, 29.30375], [101.55625, 29.30375], [101.55625, 29.30458], [101.55541, 29.30458], [101.55541, 29.30625], [101.54791, 29.30625], [101.54791, 29.30708], [101.54708, 29.30708], [101.54708, 29.30625], [101.53958, 29.30625], [101.53958, 29.30541], [101.53875, 29.30541], [101.53875, 29.30375], [101.53791, 29.30375], [101.53791, 29.30208], [101.53708, 29.30208], [101.53708, 29.29875], [101.53625, 29.29875], [101.53625, 29.29791], [101.53541, 29.29791], [101.53541, 29.29625], [101.53458, 29.29625], [101.53458, 29.29541], [101.53375, 29.29541], [101.53375, 29.29458], [101.53291, 29.29458], [101.53291, 29.29375], [101.53208, 29.29375], [101.53208, 29.29291], [101.53125, 29.29291], [101.53125, 29.29208], [101.52958, 29.29208], [101.52958, 29.29125], [101.52875, 29.29125], [101.52875, 29.29041], [101.52791, 29.29041], [101.52791, 29.28791], [101.52708, 29.28791], [101.52708, 29.28625], [101.52625, 29.28625], [101.52625, 29.28541], [101.52458, 29.28541], [101.52458, 29.28458], [101.52375, 29.28458], [101.52375, 29.28375], [101.52208, 29.28375], [101.52208, 29.28458], [101.52125, 29.28458], [101.52125, 29.28541], [101.51875, 29.28541], [101.51875, 29.28625], [101.51208, 29.28625], [101.51208, 29.28708], [101.50791, 29.28708], [101.50791, 29.28791], [101.50625, 29.28791], [101.50625, 29.28875], [101.50458, 29.28875], [101.50458, 29.28958], [101.50208, 29.28958], [101.50208, 29.29041], [101.50125, 29.29041], [101.50125, 29.29125], [101.50041, 29.29125], [101.50041, 29.29208], [101.49791, 29.29208], [101.49791, 29.29291], [101.49708, 29.29291], [101.49708, 29.29375], [101.49625, 29.29375], [101.49625, 29.29791], [101.49541, 29.29791], [101.49541, 29.29875], [101.49375, 29.29875], [101.49375, 29.29958], [101.49291, 29.29958], [101.49291, 29.30041], [101.49375, 29.30041], [101.49375, 29.30208], [101.49458, 29.30208], [101.49458, 29.30291], [101.49625, 29.30291], [101.49625, 29.30458], [101.49708, 29.30458], [101.49708, 29.30541], [101.49791, 29.30541], [101.49791, 29.30625], [101.49708, 29.30625], [101.49708, 29.30875], [101.49791, 29.30875], [101.49791, 29.31041], [101.49875, 29.31041], [101.49875, 29.31125], [101.49958, 29.31125], [101.49958, 29.31208], [101.50041, 29.31208], [101.50041, 29.31375], [101.50125, 29.31375], [101.50125, 29.31458], [101.50208, 29.31458], [101.50208, 29.31625], [101.50291, 29.31625], [101.50291, 29.31875], [101.50375, 29.31875], [101.50375, 29.32208], [101.50458, 29.32208], [101.50458, 29.32291], [101.50541, 29.32291], [101.50541, 29.32375], [101.50458, 29.32375], [101.50458, 29.32458], [101.50375, 29.32458], [101.50375, 29.32875], [101.50458, 29.32875], [101.50458, 29.33041], [101.50541, 29.33041], [101.50541, 29.33125], [101.50458, 29.33125], [101.50458, 29.33208], [101.50291, 29.33208], [101.50291, 29.33291], [101.50208, 29.33291], [101.50208, 29.33375], [101.50125, 29.33375], [101.50125, 29.33458], [101.49791, 29.33458], [101.49791, 29.33541], [101.49291, 29.33541], [101.49291, 29.33625], [101.48708, 29.33625], [101.48708, 29.33541], [101.48041, 29.33541], [101.48041, 29.33625], [101.47958, 29.33625], [101.47958, 29.33791], [101.47791, 29.33791], [101.47791, 29.33875], [101.47625, 29.33875], [101.47625, 29.33791], [101.47541, 29.33791], [101.47541, 29.33708], [101.47458, 29.33708], [101.47458, 29.33625], [101.47375, 29.33625], [101.47375, 29.33375], [101.47291, 29.33375], [101.47291, 29.33208], [101.47208, 29.33208], [101.47208, 29.32958], [101.47125, 29.32958], [101.47125, 29.32875], [101.46791, 29.32875], [101.46791, 29.32791], [101.46541, 29.32791], [101.46541, 29.32708], [101.46375, 29.32708], [101.46375, 29.32791], [101.46291, 29.32791], [101.46291, 29.32708], [101.46208, 29.32708], [101.46208, 29.32541], [101.46125, 29.32541], [101.46125, 29.32458], [101.46041, 29.32458], [101.46041, 29.32291], [101.45791, 29.32291], [101.45791, 29.32208], [101.45708, 29.32208], [101.45708, 29.32125], [101.45625, 29.32125], [101.45625, 29.31875], [101.45541, 29.31875], [101.45541, 29.31708], [101.45375, 29.31708], [101.45375, 29.31625], [101.45291, 29.31625], [101.45291, 29.31375], [101.45208, 29.31375], [101.45208, 29.31208], [101.45125, 29.31208], [101.45125, 29.31041], [101.45041, 29.31041], [101.45041, 29.30875], [101.44875, 29.30875], [101.44875, 29.30958], [101.44458, 29.30958], [101.44458, 29.30875], [101.44208, 29.30875], [101.44208, 29.30958], [101.43875, 29.30958], [101.43875, 29.31125], [101.43791, 29.31125], [101.43791, 29.31208], [101.43291, 29.31208], [101.43291, 29.31125], [101.43208, 29.31125], [101.43208, 29.30958], [101.43125, 29.30958], [101.43125, 29.30875], [101.43208, 29.30875], [101.43208, 29.30708], [101.43291, 29.30708], [101.43291, 29.30541], [101.43208, 29.30541], [101.43208, 29.30375], [101.43125, 29.30375], [101.43125, 29.30291], [101.43041, 29.30291], [101.43041, 29.30208], [101.43125, 29.30208], [101.43125, 29.30125], [101.43208, 29.30125], [101.43208, 29.29625], [101.43125, 29.29625], [101.43125, 29.29541], [101.43041, 29.29541], [101.43041, 29.29458], [101.42958, 29.29458], [101.42958, 29.29291], [101.42875, 29.29291], [101.42875, 29.29208], [101.42708, 29.29208], [101.42708, 29.29125], [101.42541, 29.29125], [101.42541, 29.28875], [101.42458, 29.28875], [101.42458, 29.28791], [101.42375, 29.28791], [101.42375, 29.28458], [101.42208, 29.28458], [101.42208, 29.28375], [101.42125, 29.28375], [101.42125, 29.28291], [101.42041, 29.28291], [101.42041, 29.28041], [101.41958, 29.28041], [101.41958, 29.27791], [101.41875, 29.27791], [101.41875, 29.27708], [101.41791, 29.27708], [101.41791, 29.27625], [101.41625, 29.27625], [101.41625, 29.27541], [101.40625, 29.27541], [101.40625, 29.27625], [101.40458, 29.27625], [101.40458, 29.27708], [101.40291, 29.27708], [101.40291, 29.27791], [101.40208, 29.27791], [101.40208, 29.27875], [101.40125, 29.27875], [101.40125, 29.27958], [101.40041, 29.27958], [101.40041, 29.28041], [101.39875, 29.28041], [101.39875, 29.27958], [101.39791, 29.27958], [101.39791, 29.27875], [101.39708, 29.27875], [101.39708, 29.27625], [101.39625, 29.27625], [101.39625, 29.27541], [101.39541, 29.27541], [101.39541, 29.27458], [101.39458, 29.27458], [101.39458, 29.27208], [101.39375, 29.27208], [101.39375, 29.27125], [101.38791, 29.27125], [101.38791, 29.27208], [101.38541, 29.27208], [101.38541, 29.27125], [101.38458, 29.27125], [101.38458, 29.27041], [101.38375, 29.27041], [101.38375, 29.26958], [101.38208, 29.26958], [101.38208, 29.26875], [101.38125, 29.26875], [101.38125, 29.26791], [101.37958, 29.26791], [101.37958, 29.26625], [101.37875, 29.26625], [101.37875, 29.26541], [101.37791, 29.26541], [101.37791, 29.26458], [101.37291, 29.26458], [101.37291, 29.26541], [101.36958, 29.26541], [101.36958, 29.26458], [101.36708, 29.26458], [101.36708, 29.26375], [101.36541, 29.26375], [101.36541, 29.26291], [101.36208, 29.26291], [101.36208, 29.26208], [101.36125, 29.26208], [101.36125, 29.26041], [101.36208, 29.26041], [101.36208, 29.25958], [101.36291, 29.25958], [101.36291, 29.25791], [101.36375, 29.25791], [101.36375, 29.25708], [101.36458, 29.25708], [101.36458, 29.25541], [101.36541, 29.25541], [101.36541, 29.25458], [101.36625, 29.25458], [101.36625, 29.25375], [101.36708, 29.25375], [101.36708, 29.25291], [101.36791, 29.25291], [101.36791, 29.24375], [101.36708, 29.24375], [101.36708, 29.24291], [101.36625, 29.24291], [101.36625, 29.23875], [101.36708, 29.23875], [101.36708, 29.23375], [101.36625, 29.23375], [101.36625, 29.23208], [101.36541, 29.23208], [101.36541, 29.23125], [101.36458, 29.23125], [101.36458, 29.23041], [101.36291, 29.23041], [101.36291, 29.22875], [101.36208, 29.22875], [101.36208, 29.22791], [101.36125, 29.22791], [101.36125, 29.22708], [101.36041, 29.22708], [101.36041, 29.22625], [101.35958, 29.22625], [101.35958, 29.22458], [101.36041, 29.22458], [101.36041, 29.22208], [101.35958, 29.22208], [101.35958, 29.22041], [101.35875, 29.22041], [101.35875, 29.21708], [101.35791, 29.21708], [101.35791, 29.21625], [101.35708, 29.21625], [101.35708, 29.21541], [101.35625, 29.21541], [101.35625, 29.21208], [101.35541, 29.21208], [101.35541, 29.21041], [101.35458, 29.21041], [101.35458, 29.20958], [101.35375, 29.20958], [101.35375, 29.20875], [101.35041, 29.20875], [101.35041, 29.20791], [101.34958, 29.20791], [101.34958, 29.20541], [101.34875, 29.20541], [101.34875, 29.20125], [101.34791, 29.20125], [101.34791, 29.20041], [101.34708, 29.20041], [101.34708, 29.19958], [101.34625, 29.19958], [101.34625, 29.19875], [101.34375, 29.19875], [101.34375, 29.19791], [101.34125, 29.19791], [101.34125, 29.19708], [101.33875, 29.19708], [101.33875, 29.19625], [101.33791, 29.19625], [101.33791, 29.19458], [101.33708, 29.19458], [101.33708, 29.19375], [101.33458, 29.19375], [101.33458, 29.19208], [101.33375, 29.19208], [101.33375, 29.19125], [101.33208, 29.19125], [101.33208, 29.19041], [101.32625, 29.19041], [101.32625, 29.19125], [101.32375, 29.19125], [101.32375, 29.19208], [101.32291, 29.19208], [101.32291, 29.19291], [101.32041, 29.19291], [101.32041, 29.19208], [101.31791, 29.19208], [101.31791, 29.19125], [101.31625, 29.19125], [101.31625, 29.19041], [101.30791, 29.19041], [101.30791, 29.19125], [101.30541, 29.19125], [101.30541, 29.19208], [101.30375, 29.19208], [101.30375, 29.18625], [101.30458, 29.18625], [101.30458, 29.18458], [101.30541, 29.18458], [101.30541, 29.18125], [101.30625, 29.18125], [101.30625, 29.18041], [101.30708, 29.18041], [101.30708, 29.17541], [101.30625, 29.17541], [101.30625, 29.17458], [101.30541, 29.17458], [101.30541, 29.17208], [101.30458, 29.17208], [101.30458, 29.17125], [101.30375, 29.17125], [101.30375, 29.17041], [101.30291, 29.17041], [101.30291, 29.16958], [101.30208, 29.16958], [101.30208, 29.16875], [101.30125, 29.16875], [101.30125, 29.16458], [101.30041, 29.16458], [101.30041, 29.16125], [101.29958, 29.16125], [101.29958, 29.15958], [101.30041, 29.15958], [101.30041, 29.15875], [101.30125, 29.15875], [101.30125, 29.15791], [101.30208, 29.15791], [101.30208, 29.15625], [101.30291, 29.15625], [101.30291, 29.15375], [101.30375, 29.15375], [101.30375, 29.15125], [101.30458, 29.15125], [101.30458, 29.15041], [101.30541, 29.15041], [101.30541, 29.14958], [101.30625, 29.14958], [101.30625, 29.14791], [101.30708, 29.14791], [101.30708, 29.14541], [101.30791, 29.14541], [101.30791, 29.14458], [101.30708, 29.14458], [101.30708, 29.14125], [101.30791, 29.14125], [101.30791, 29.13791], [101.30875, 29.13791], [101.30875, 29.13708], [101.30958, 29.13708], [101.30958, 29.13625], [101.31041, 29.13625], [101.31041, 29.13458], [101.31125, 29.13458], [101.31125, 29.13375], [101.31208, 29.13375], [101.31208, 29.13041], [101.31291, 29.13041], [101.31291, 29.12708], [101.31208, 29.12708], [101.31208, 29.12541], [101.31041, 29.12541], [101.31041, 29.12375], [101.30958, 29.12375], [101.30958, 29.12291], [101.30875, 29.12291], [101.30875, 29.12208], [101.30791, 29.12208], [101.30791, 29.12041], [101.30708, 29.12041], [101.30708, 29.11875], [101.30625, 29.11875], [101.30625, 29.11458], [101.30541, 29.11458], [101.30541, 29.11208], [101.30458, 29.11208], [101.30458, 29.11125], [101.30375, 29.11125], [101.30375, 29.11041], [101.30291, 29.11041], [101.30291, 29.10958], [101.30375, 29.10958], [101.30375, 29.10875], [101.30458, 29.10875], [101.30458, 29.10791], [101.30625, 29.10791], [101.30625, 29.10708], [101.30875, 29.10708], [101.30875, 29.10625], [101.30958, 29.10625], [101.30958, 29.10458], [101.31458, 29.10458], [101.31458, 29.10375], [101.31541, 29.10375], [101.31541, 29.10291], [101.31625, 29.10291], [101.31625, 29.10208], [101.31708, 29.10208], [101.31708, 29.10041], [101.31791, 29.10041], [101.31791, 29.09958], [101.31875, 29.09958], [101.31875, 29.09375], [101.32041, 29.09375], [101.32041, 29.09291], [101.32208, 29.09291], [101.32208, 29.09208], [101.32375, 29.09208], [101.32375, 29.08791], [101.32458, 29.08791], [101.32458, 29.08458], [101.32541, 29.08458], [101.32541, 29.08375], [101.32708, 29.08375], [101.32708, 29.08291], [101.32791, 29.08291], [101.32791, 29.08208], [101.32875, 29.08208], [101.32875, 29.08125], [101.33041, 29.08125], [101.33041, 29.07875], [101.33125, 29.07875], [101.33125, 29.07625], [101.33208, 29.07625], [101.33208, 29.07458], [101.33291, 29.07458], [101.33291, 29.07375], [101.33458, 29.07375], [101.33458, 29.07291], [101.33541, 29.07291], [101.33541, 29.07208], [101.33625, 29.07208], [101.33625, 29.06708], [101.33708, 29.06708], [101.33708, 29.06625], [101.33625, 29.06625], [101.33625, 29.06541], [101.33791, 29.06541], [101.33791, 29.06458], [101.33875, 29.06458], [101.33875, 29.06375], [101.33958, 29.06375], [101.33958, 29.06125], [101.34041, 29.06125], [101.34041, 29.05958], [101.33958, 29.05958], [101.33958, 29.05541], [101.33875, 29.05541], [101.33875, 29.05458], [101.34041, 29.05458], [101.34041, 29.05375], [101.34125, 29.05375], [101.34125, 29.05291], [101.34208, 29.05291], [101.34208, 29.05041], [101.34291, 29.05041], [101.34291, 29.04958], [101.34375, 29.04958], [101.34375, 29.04791], [101.34458, 29.04791], [101.34458, 29.04625], [101.34541, 29.04625], [101.34541, 29.04541], [101.34875, 29.04541], [101.34875, 29.04458], [101.35041, 29.04458], [101.35041, 29.04375], [101.35125, 29.04375], [101.35125, 29.04208], [101.35041, 29.04208], [101.35041, 29.04041], [101.35125, 29.04041], [101.35125, 29.03958], [101.35208, 29.03958], [101.35208, 29.03625], [101.35291, 29.03625], [101.35291, 29.03291], [101.35208, 29.03291], [101.35208, 29.03208], [101.35125, 29.03208], [101.35125, 29.03125], [101.35041, 29.03125], [101.35041, 29.03041], [101.34958, 29.03041], [101.34958, 29.02958], [101.34875, 29.02958], [101.34875, 29.02625], [101.34791, 29.02625], [101.34791, 29.02541], [101.34875, 29.02541], [101.34875, 29.02458], [101.34958, 29.02458], [101.34958, 29.02375], [101.35041, 29.02375], [101.35041, 29.02291], [101.35208, 29.02291], [101.35208, 29.02125], [101.35291, 29.02125], [101.35291, 29.02041], [101.35375, 29.02041], [101.35375, 29.01958], [101.35458, 29.01958], [101.35458, 29.01875], [101.35375, 29.01875], [101.35375, 29.01791], [101.35458, 29.01791], [101.35458, 29.01708], [101.35541, 29.01708], [101.35541, 29.01625], [101.35625, 29.01625], [101.35625, 29.01375], [101.35541, 29.01375], [101.35541, 29.01208], [101.35458, 29.01208], [101.35458, 29.01125], [101.35375, 29.01125], [101.35375, 29.01041], [101.35458, 29.01041], [101.35458, 29.00875], [101.35625, 29.00875], [101.35625, 29.00625], [101.35541, 29.00625], [101.35541, 29.00541], [101.35375, 29.00541], [101.35375, 29.00458], [101.35291, 29.00458], [101.35291, 29.00208], [101.35375, 29.00208], [101.35375, 29.00125], [101.35458, 29.00125], [101.35458, 29.00041], [101.35541, 29.00041], [101.35541, 28.99791], [101.35625, 28.99791], [101.35625, 28.99708], [101.35708, 28.99708], [101.35708, 28.99625], [101.35791, 28.99625], [101.35791, 28.99375], [101.35875, 28.99375], [101.35875, 28.99291], [101.35958, 28.99291], [101.35958, 28.99208], [101.36125, 28.99208], [101.36125, 28.99041], [101.36208, 28.99041], [101.36208, 28.98875], [101.36291, 28.98875], [101.36291, 28.98291], [101.36375, 28.98291], [101.36375, 28.98208], [101.36458, 28.98208], [101.36458, 28.98125], [101.36541, 28.98125], [101.36541, 28.98041], [101.36791, 28.98041], [101.36791, 28.97958], [101.36875, 28.97958], [101.36875, 28.97875], [101.37041, 28.97875], [101.37041, 28.97791], [101.37125, 28.97791], [101.37125, 28.97708], [101.37208, 28.97708], [101.37208, 28.97791], [101.37541, 28.97791], [101.37541, 28.97708], [101.37625, 28.97708], [101.37625, 28.97791], [101.37791, 28.97791], [101.37791, 28.97708], [101.38041, 28.97708], [101.38041, 28.97625], [101.38125, 28.97625], [101.38125, 28.97541], [101.38208, 28.97541], [101.38208, 28.97458], [101.38291, 28.97458], [101.38291, 28.97291], [101.38375, 28.97291], [101.38375, 28.97208], [101.38458, 28.97208], [101.38458, 28.97125], [101.38541, 28.97125], [101.38541, 28.97041], [101.38625, 28.97041], [101.38625, 28.96958], [101.38791, 28.96958], [101.38791, 28.96875], [101.38875, 28.96875], [101.38875, 28.96791], [101.39041, 28.96791], [101.39041, 28.96708], [101.39125, 28.96708], [101.39125, 28.96625], [101.39208, 28.96625], [101.39208, 28.96541], [101.39291, 28.96541], [101.39291, 28.96291], [101.39541, 28.96291], [101.39541, 28.96208], [101.39625, 28.96208], [101.39625, 28.96125], [101.39708, 28.96125], [101.39708, 28.96041], [101.39958, 28.96041], [101.39958, 28.95958], [101.40208, 28.95958], [101.40208, 28.95875], [101.40291, 28.95875], [101.40291, 28.95541], [101.40375, 28.95541], [101.40375, 28.95375], [101.40791, 28.95375], [101.40791, 28.95291], [101.41541, 28.95291], [101.41541, 28.95208], [101.41625, 28.95208], [101.41625, 28.95125], [101.41708, 28.95125], [101.41708, 28.95041], [101.41791, 28.95041], [101.41791, 28.94958], [101.41875, 28.94958], [101.41875, 28.94875], [101.41958, 28.94875], [101.41958, 28.94791], [101.42041, 28.94791], [101.42041, 28.94625], [101.41958, 28.94625], [101.41958, 28.94541], [101.41791, 28.94541], [101.41791, 28.94375], [101.41708, 28.94375], [101.41708, 28.94125], [101.41791, 28.94125], [101.41791, 28.93708], [101.41708, 28.93708], [101.41708, 28.93541], [101.41875, 28.93541], [101.41875, 28.93458], [101.41958, 28.93458], [101.41958, 28.93375], [101.42125, 28.93375], [101.42125, 28.93291], [101.42291, 28.93291], [101.42291, 28.93208], [101.42458, 28.93208], [101.42458, 28.93125], [101.42708, 28.93125], [101.42708, 28.93041], [101.42791, 28.93041], [101.42791, 28.92958], [101.42875, 28.92958], [101.42875, 28.92791], [101.42958, 28.92791], [101.42958, 28.92708], [101.43041, 28.92708], [101.43041, 28.92541], [101.43125, 28.92541], [101.43125, 28.92375], [101.43041, 28.92375], [101.43041, 28.92291], [101.42958, 28.92291], [101.42958, 28.92208], [101.42875, 28.92208], [101.42875, 28.91708], [101.42958, 28.91708], [101.42958, 28.91458], [101.43041, 28.91458], [101.43041, 28.91208], [101.43208, 28.91208], [101.43208, 28.91125], [101.43291, 28.91125], [101.43291, 28.91041], [101.43458, 28.91041], [101.43458, 28.90958], [101.43541, 28.90958], [101.43541, 28.90875], [101.43625, 28.90875], [101.43625, 28.90791], [101.43791, 28.90791], [101.43791, 28.90125], [101.43958, 28.90125], [101.43958, 28.90041], [101.44208, 28.90041], [101.44208, 28.89958], [101.44375, 28.89958], [101.44375, 28.89875], [101.44458, 28.89875], [101.44458, 28.89791], [101.44541, 28.89791], [101.44541, 28.89625], [101.44625, 28.89625], [101.44625, 28.89458], [101.44708, 28.89458], [101.44708, 28.89208], [101.44625, 28.89208], [101.44625, 28.89125], [101.44541, 28.89125], [101.44541, 28.88958], [101.44375, 28.88958], [101.44375, 28.88875], [101.44208, 28.88875], [101.44208, 28.88625], [101.44291, 28.88625], [101.44291, 28.88541], [101.44375, 28.88541], [101.44375, 28.88041], [101.44291, 28.88041], [101.44291, 28.87875], [101.44375, 28.87875], [101.44375, 28.87791], [101.44541, 28.87791], [101.44541, 28.87708], [101.44625, 28.87708], [101.44625, 28.87625], [101.45041, 28.87625], [101.45041, 28.87541], [101.45291, 28.87541], [101.45291, 28.87458], [101.45458, 28.87458], [101.45458, 28.87375], [101.45541, 28.87375], [101.45541, 28.87125]]]}, "properties": {"area_km2": "1,930", "outlet_lat": 28.712, "outlet_lng": 101.676}}]}